[{"OBJECT_NAME":"METEOSAT-11 (MSG-4)","OBJECT_ID":"2015-034A","EPOCH":"2026-03-02T17:34:59.054016","MEAN_MOTION":1.00265571,"ECCENTRICITY":0.0001801,"INCLINATION":2.9333,"RA_OF_ASC_NODE":71.6917,"ARG_OF_PERICENTER":270.6717,"MEAN_ANOMALY":91.3181,"EPHEMERIS_TYPE":0,"CLASSIFICATION_TYPE":"U","NORAD_CAT_ID":40732,"ELEMENT_SET_NO":999,"REV_AT_EPOCH":615,"BSTAR":0,"MEAN_MOTION_DOT":4.6e-7,"MEAN_MOTION_DDOT":0},{"OBJECT_NAME":"ELEKTRO-L 2","OBJECT_ID":"2015-074A","EPOCH":"2026-03-02T18:08:46.667616","MEAN_MOTION":1.00270716,"ECCENTRICITY":0.0003492,"INCLINATION":6.4265,"RA_OF_ASC_NODE":71.8311,"ARG_OF_PERICENTER":235.2351,"MEAN_ANOMALY":111.1512,"EPHEMERIS_TYPE":0,"CLASSIFICATION_TYPE":"U","NORAD_CAT_ID":41105,"ELEMENT_SET_NO":999,"REV_AT_EPOCH":3743,"BSTAR":0,"MEAN_MOTION_DOT":-1.31e-6,"MEAN_MOTION_DDOT":0},{"OBJECT_NAME":"INSAT-3DR","OBJECT_ID":"2016-054A","EPOCH":"2026-03-02T17:34:38.647200","MEAN_MOTION":1.00272217,"ECCENTRICITY":0.0013383,"INCLINATION":0.0425,"RA_OF_ASC_NODE":97.5075,"ARG_OF_PERICENTER":184.069,"MEAN_ANOMALY":216.5622,"EPHEMERIS_TYPE":0,"CLASSIFICATION_TYPE":"U","NORAD_CAT_ID":41752,"ELEMENT_SET_NO":999,"REV_AT_EPOCH":3475,"BSTAR":0,"MEAN_MOTION_DOT":-9.3e-7,"MEAN_MOTION_DDOT":0},{"OBJECT_NAME":"HIMAWARI-9","OBJECT_ID":"2016-064A","EPOCH":"2026-03-02T20:00:38.438208","MEAN_MOTION":1.00272669,"ECCENTRICITY":0.0001127,"INCLINATION":0.017,"RA_OF_ASC_NODE":189.165,"ARG_OF_PERICENTER":171.7739,"MEAN_ANOMALY":240.5949,"EPHEMERIS_TYPE":0,"CLASSIFICATION_TYPE":"U","NORAD_CAT_ID":41836,"ELEMENT_SET_NO":999,"REV_AT_EPOCH":3414,"BSTAR":0,"MEAN_MOTION_DOT":-2.91e-6,"MEAN_MOTION_DDOT":0},{"OBJECT_NAME":"GOES 16","OBJECT_ID":"2016-071A","EPOCH":"2026-03-02T15:19:46.524288","MEAN_MOTION":1.00271558,"ECCENTRICITY":0.0002602,"INCLINATION":0.1427,"RA_OF_ASC_NODE":90.2616,"ARG_OF_PERICENTER":216.051,"MEAN_ANOMALY":339.3388,"EPHEMERIS_TYPE":0,"CLASSIFICATION_TYPE":"U","NORAD_CAT_ID":41866,"ELEMENT_SET_NO":999,"REV_AT_EPOCH":3403,"BSTAR":0,"MEAN_MOTION_DOT":-1.08e-6,"MEAN_MOTION_DDOT":0},{"OBJECT_NAME":"FENGYUN 4A","OBJECT_ID":"2016-077A","EPOCH":"2026-03-02T07:51:26.140896","MEAN_MOTION":1.0026253,"ECCENTRICITY":0.00063908,"INCLINATION":2.0502,"RA_OF_ASC_NODE":81.4469,"ARG_OF_PERICENTER":133.8252,"MEAN_ANOMALY":186.1956,"EPHEMERIS_TYPE":0,"CLASSIFICATION_TYPE":"U","NORAD_CAT_ID":41882,"ELEMENT_SET_NO":999,"REV_AT_EPOCH":3385,"BSTAR":0,"MEAN_MOTION_DOT":-3.74e-6,"MEAN_MOTION_DDOT":0},{"OBJECT_NAME":"CYGFM05","OBJECT_ID":"2016-078A","EPOCH":"2026-03-02T19:37:18.677856","MEAN_MOTION":15.51764108,"ECCENTRICITY":0.000691,"INCLINATION":34.9564,"RA_OF_ASC_NODE":242.4705,"ARG_OF_PERICENTER":226.3514,"MEAN_ANOMALY":133.6637,"EPHEMERIS_TYPE":0,"CLASSIFICATION_TYPE":"U","NORAD_CAT_ID":41884,"ELEMENT_SET_NO":999,"REV_AT_EPOCH":51219,"BSTAR":0.00045849,"MEAN_MOTION_DOT":0.00028308,"MEAN_MOTION_DDOT":0},{"OBJECT_NAME":"CYGFM04","OBJECT_ID":"2016-078B","EPOCH":"2026-03-02T18:05:00.596832","MEAN_MOTION":15.55134948,"ECCENTRICITY":0.0006069,"INCLINATION":34.9318,"RA_OF_ASC_NODE":215.2099,"ARG_OF_PERICENTER":259.5153,"MEAN_ANOMALY":100.4887,"EPHEMERIS_TYPE":0,"CLASSIFICATION_TYPE":"U","NORAD_CAT_ID":41885,"ELEMENT_SET_NO":999,"REV_AT_EPOCH":51238,"BSTAR":0.00048392,"MEAN_MOTION_DOT":0.00033809,"MEAN_MOTION_DDOT":0},{"OBJECT_NAME":"CYGFM02","OBJECT_ID":"2016-078C","EPOCH":"2026-03-02T19:01:37.962336","MEAN_MOTION":15.57141772,"ECCENTRICITY":0.0007052,"INCLINATION":34.9406,"RA_OF_ASC_NODE":211.9979,"ARG_OF_PERICENTER":260.3358,"MEAN_ANOMALY":99.6569,"EPHEMERIS_TYPE":0,"CLASSIFICATION_TYPE":"U","NORAD_CAT_ID":41886,"ELEMENT_SET_NO":999,"REV_AT_EPOCH":51253,"BSTAR":0.00058076,"MEAN_MOTION_DOT":0.00043799,"MEAN_MOTION_DDOT":0},{"OBJECT_NAME":"CYGFM01","OBJECT_ID":"2016-078D","EPOCH":"2026-03-02T18:46:38.546112","MEAN_MOTION":15.52193144,"ECCENTRICITY":0.0006472,"INCLINATION":34.9393,"RA_OF_ASC_NODE":244.5269,"ARG_OF_PERICENTER":217.3799,"MEAN_ANOMALY":142.6474,"EPHEMERIS_TYPE":0,"CLASSIFICATION_TYPE":"U","NORAD_CAT_ID":41887,"ELEMENT_SET_NO":999,"REV_AT_EPOCH":51213,"BSTAR":0.0004736,"MEAN_MOTION_DOT":0.00029702,"MEAN_MOTION_DDOT":0},{"OBJECT_NAME":"CYGFM08","OBJECT_ID":"2016-078E","EPOCH":"2026-03-02T20:00:00.215712","MEAN_MOTION":15.5367104,"ECCENTRICITY":0.0008125,"INCLINATION":34.9427,"RA_OF_ASC_NODE":226.1438,"ARG_OF_PERICENTER":243.3728,"MEAN_ANOMALY":116.6163,"EPHEMERIS_TYPE":0,"CLASSIFICATION_TYPE":"U","NORAD_CAT_ID":41888,"ELEMENT_SET_NO":999,"REV_AT_EPOCH":51238,"BSTAR":0.00047772,"MEAN_MOTION_DOT":0.00031637,"MEAN_MOTION_DDOT":0},{"OBJECT_NAME":"CYGFM07","OBJECT_ID":"2016-078G","EPOCH":"2026-03-02T19:16:14.956032","MEAN_MOTION":15.54357251,"ECCENTRICITY":0.0006683,"INCLINATION":34.9445,"RA_OF_ASC_NODE":214.8351,"ARG_OF_PERICENTER":263.2097,"MEAN_ANOMALY":96.7866,"EPHEMERIS_TYPE":0,"CLASSIFICATION_TYPE":"U","NORAD_CAT_ID":41890,"ELEMENT_SET_NO":999,"REV_AT_EPOCH":51240,"BSTAR":0.0004857,"MEAN_MOTION_DOT":0.00032976,"MEAN_MOTION_DDOT":0},{"OBJECT_NAME":"CYGFM03","OBJECT_ID":"2016-078H","EPOCH":"2026-03-01T20:59:51.136224","MEAN_MOTION":15.54268287,"ECCENTRICITY":0.0005646,"INCLINATION":34.9393,"RA_OF_ASC_NODE":222.94,"ARG_OF_PERICENTER":240.4769,"MEAN_ANOMALY":119.5391,"EPHEMERIS_TYPE":0,"CLASSIFICATION_TYPE":"U","NORAD_CAT_ID":41891,"ELEMENT_SET_NO":999,"REV_AT_EPOCH":51223,"BSTAR":0.00058474,"MEAN_MOTION_DOT":0.00039603,"MEAN_MOTION_DDOT":0},{"OBJECT_NAME":"FENGYUN 3D","OBJECT_ID":"2017-072A","EPOCH":"2026-03-02T20:53:26.924928","MEAN_MOTION":14.19711561,"ECCENTRICITY":0.0001883,"INCLINATION":99.0011,"RA_OF_ASC_NODE":34.4341,"ARG_OF_PERICENTER":26.8822,"MEAN_ANOMALY":333.2451,"EPHEMERIS_TYPE":0,"CLASSIFICATION_TYPE":"U","NORAD_CAT_ID":43010,"ELEMENT_SET_NO":999,"REV_AT_EPOCH":42990,"BSTAR":-0.00010745,"MEAN_MOTION_DOT":-2.73e-6,"MEAN_MOTION_DDOT":0},{"OBJECT_NAME":"NOAA 20 (JPSS-1)","OBJECT_ID":"2017-073A","EPOCH":"2026-03-02T18:43:00.884640","MEAN_MOTION":14.19533889,"ECCENTRICITY":8.93e-5,"INCLINATION":98.7684,"RA_OF_ASC_NODE":2.2361,"ARG_OF_PERICENTER":145.9894,"MEAN_ANOMALY":214.134,"EPHEMERIS_TYPE":0,"CLASSIFICATION_TYPE":"U","NORAD_CAT_ID":43013,"ELEMENT_SET_NO":999,"REV_AT_EPOCH":42937,"BSTAR":6.1486e-5,"MEAN_MOTION_DOT":8.6e-7,"MEAN_MOTION_DDOT":0},{"OBJECT_NAME":"GOES 17","OBJECT_ID":"2018-022A","EPOCH":"2026-03-02T15:24:01.116576","MEAN_MOTION":1.00270484,"ECCENTRICITY":0.0002342,"INCLINATION":0.6635,"RA_OF_ASC_NODE":87.5918,"ARG_OF_PERICENTER":218.8381,"MEAN_ANOMALY":355.4875,"EPHEMERIS_TYPE":0,"CLASSIFICATION_TYPE":"U","NORAD_CAT_ID":43226,"ELEMENT_SET_NO":999,"REV_AT_EPOCH":2935,"BSTAR":0,"MEAN_MOTION_DOT":-1.99e-6,"MEAN_MOTION_DDOT":0},{"OBJECT_NAME":"FENGYUN 2H","OBJECT_ID":"2018-050A","EPOCH":"2026-03-02T21:29:11.288256","MEAN_MOTION":1.00272604,"ECCENTRICITY":0.0002016,"INCLINATION":2.7565,"RA_OF_ASC_NODE":80.3709,"ARG_OF_PERICENTER":173.4098,"MEAN_ANOMALY":308.2405,"EPHEMERIS_TYPE":0,"CLASSIFICATION_TYPE":"U","NORAD_CAT_ID":43491,"ELEMENT_SET_NO":999,"REV_AT_EPOCH":2837,"BSTAR":0,"MEAN_MOTION_DOT":-1.42e-6,"MEAN_MOTION_DDOT":0}]
