METEOSAT-11 (MSG-4)     
1 40732U 15034A   26061.73262794  .00000046  00000+0  00000+0 0  9992
2 40732   2.9333  71.6917 0001801 270.6717  91.3181  1.00265571  6151
ELEKTRO-L 2             
1 41105U 15074A   26061.75609569 -.00000131  00000+0  00000+0 0  9994
2 41105   6.4265  71.8311 0003492 235.2351 111.1512  1.00270716 37439
INSAT-3DR               
1 41752U 16054A   26061.73239175 -.00000093  00000+0  00000+0 0  9998
2 41752   0.0425  97.5075 0013383 184.0690 216.5622  1.00272217 34756
HIMAWARI-9              
1 41836U 16064A   26061.83377822 -.00000291  00000+0  00000+0 0  9995
2 41836   0.0170 189.1650 0001127 171.7739 240.5949  1.00272669 34146
GOES 16                 
1 41866U 16071A   26061.63873292 -.00000108  00000+0  00000+0 0  9993
2 41866   0.1427  90.2616 0002602 216.0510 339.3388  1.00271558 34036
FENGYUN 4A              
1 41882U 16077A   26061.32738589 -.00000374  00000+0  00000+0 0  9997
2 41882   2.0502  81.4469 0006390 133.8252 186.1956  1.00262530 33852
CYGFM05                 
1 41884U 16078A   26061.81757729  .00028308  00000+0  45849-3 0  9991
2 41884  34.9564 242.4705 0006910 226.3514 133.6637 15.51764108512196
CYGFM04                 
1 41885U 16078B   26061.75347913  .00033809  00000+0  48392-3 0  9993
2 41885  34.9318 215.2099 0006069 259.5153 100.4887 15.55134948512387
CYGFM02                 
1 41886U 16078C   26061.79280049  .00043799  00000+0  58076-3 0  9993
2 41886  34.9406 211.9979 0007052 260.3358  99.6569 15.57141772512534
CYGFM01                 
1 41887U 16078D   26061.78239058  .00029702  00000+0  47360-3 0  9999
2 41887  34.9393 244.5269 0006472 217.3799 142.6474 15.52193144512135
CYGFM08                 
1 41888U 16078E   26061.83333583  .00031637  00000+0  47772-3 0  9991
2 41888  34.9427 226.1438 0008125 243.3728 116.6163 15.53671040512386
CYGFM07                 
1 41890U 16078G   26061.80295088  .00032976  00000+0  48570-3 0  9992
2 41890  34.9445 214.8351 0006683 263.2097  96.7866 15.54357251512401
CYGFM03                 
1 41891U 16078H   26060.87489741  .00039603  00000+0  58474-3 0  9998
2 41891  34.9393 222.9400 0005646 240.4769 119.5391 15.54268287512238
FENGYUN 3D              
1 43010U 17072A   26061.87045052 -.00000273  00000+0 -10745-3 0  9994
2 43010  99.0011  34.4341 0001883  26.8822 333.2451 14.19711561429908
NOAA 20 (JPSS-1)        
1 43013U 17073A   26061.77987135  .00000086  00000+0  61486-4 0  9993
2 43013  98.7684   2.2361 0000893 145.9894 214.1340 14.19533889429370
GOES 17                 
1 43226U 18022A   26061.64167959 -.00000199  00000+0  00000+0 0  9990
2 43226   0.6635  87.5918 0002342 218.8381 355.4875  1.00270484 29351
FENGYUN 2H              
1 43491U 18050A   26061.89526954 -.00000142  00000+0  00000+0 0  9994
2 43491   2.7565  80.3709 0002016 173.4098 308.2405  1.00272604 28370
